{
  "links" : {
    "next" : "https://api.nasa.gov/neo/rest/v1/feed?start_date=1996-12-16&end_date=1996-12-16&detailed=true&api_key=t0TVs3DtDT2H8Oy2Zy8m2eVrNsAVKAexjcZXUckd",
    "prev" : "https://api.nasa.gov/neo/rest/v1/feed?start_date=1996-12-14&end_date=1996-12-14&detailed=true&api_key=t0TVs3DtDT2H8Oy2Zy8m2eVrNsAVKAexjcZXUckd",
    "self" : "https://api.nasa.gov/neo/rest/v1/feed?start_date=1996-12-15&end_date=1996-12-15&detailed=true&api_key=t0TVs3DtDT2H8Oy2Zy8m2eVrNsAVKAexjcZXUckd"
  },
  "element_count" : 7,
  "near_earth_objects" : {
    "1996-12-15" : [ {
      "links" : {
        "self" : "https://api.nasa.gov/neo/rest/v1/neo/2155338?api_key=t0TVs3DtDT2H8Oy2Zy8m2eVrNsAVKAexjcZXUckd"
      },
      "neo_reference_id" : "2155338",
      "name" : "155338 (2006 MZ1)",
      "nasa_jpl_url" : "http://ssd.jpl.nasa.gov/sbdb.cgi?sstr=2155338",
      "absolute_magnitude_h" : 20.5,
      "estimated_diameter" : {
        "kilometers" : {
          "estimated_diameter_min" : 0.2111324448,
          "estimated_diameter_max" : 0.4721064988
        },
        "meters" : {
          "estimated_diameter_min" : 211.1324447897,
          "estimated_diameter_max" : 472.1064988055
        },
        "miles" : {
          "estimated_diameter_min" : 0.1311915784,
          "estimated_diameter_max" : 0.2933532873
        },
        "feet" : {
          "estimated_diameter_min" : 692.6917701639,
          "estimated_diameter_max" : 1548.9058855411
        }
      },
      "is_potentially_hazardous_asteroid" : true,
      "close_approach_data" : [ {
        "close_approach_date" : "1996-12-15",
        "epoch_date_close_approach" : 850636800000,
        "relative_velocity" : {
          "kilometers_per_second" : "19.9917799837",
          "kilometers_per_hour" : "71970.4079414406",
          "miles_per_hour" : "44719.6126456135"
        },
        "miss_distance" : {
          "astronomical" : "0.2537883976",
          "lunar" : "98.7236938477",
          "kilometers" : "37966208",
          "miles" : "23591106"
        },
        "orbiting_body" : "Earth"
      } ],
      "orbital_data" : {
        "orbit_id" : "24",
        "orbit_determination_date" : "2017-04-06 09:26:51",
        "orbit_uncertainty" : "0",
        "minimum_orbit_intersection" : ".0129026",
        "jupiter_tisserand_invariant" : "4.277",
        "epoch_osculation" : "2458000.5",
        "eccentricity" : ".4825763357530656",
        "semi_major_axis" : "1.569400633183634",
        "inclination" : "2.081420508852393",
        "ascending_node_longitude" : "226.64506141",
        "orbital_period" : "718.1235383931547",
        "perihelion_distance" : ".812045026293335",
        "perihelion_argument" : "138.613654939632",
        "aphelion_distance" : "2.326756240073933",
        "perihelion_time" : "2458284.581372064617",
        "mean_anomaly" : "217.5881607054742",
        "mean_motion" : ".5013065033427563",
        "equinox" : "J2000"
      }
    }, {
      "links" : {
        "self" : "https://api.nasa.gov/neo/rest/v1/neo/3102683?api_key=t0TVs3DtDT2H8Oy2Zy8m2eVrNsAVKAexjcZXUckd"
      },
      "neo_reference_id" : "3102683",
      "name" : "(2001 XX4)",
      "nasa_jpl_url" : "http://ssd.jpl.nasa.gov/sbdb.cgi?sstr=3102683",
      "absolute_magnitude_h" : 22.1,
      "estimated_diameter" : {
        "kilometers" : {
          "estimated_diameter_min" : 0.1010543415,
          "estimated_diameter_max" : 0.2259643771
        },
        "meters" : {
          "estimated_diameter_min" : 101.054341542,
          "estimated_diameter_max" : 225.9643771094
        },
        "miles" : {
          "estimated_diameter_min" : 0.0627922373,
          "estimated_diameter_max" : 0.140407711
        },
        "feet" : {
          "estimated_diameter_min" : 331.5431259047,
          "estimated_diameter_max" : 741.3529669956
        }
      },
      "is_potentially_hazardous_asteroid" : true,
      "close_approach_data" : [ {
        "close_approach_date" : "1996-12-15",
        "epoch_date_close_approach" : 850636800000,
        "relative_velocity" : {
          "kilometers_per_second" : "11.739294092",
          "kilometers_per_hour" : "42261.4587310286",
          "miles_per_hour" : "26259.6269542883"
        },
        "miss_distance" : {
          "astronomical" : "0.3254290461",
          "lunar" : "126.5919036865",
          "kilometers" : "48683492",
          "miles" : "30250520"
        },
        "orbiting_body" : "Earth"
      } ],
      "orbital_data" : {
        "orbit_id" : "12",
        "orbit_determination_date" : "2017-04-06 09:15:45",
        "orbit_uncertainty" : "1",
        "minimum_orbit_intersection" : ".0113586",
        "jupiter_tisserand_invariant" : "5.900",
        "epoch_osculation" : "2458000.5",
        "eccentricity" : ".5567337012305469",
        "semi_major_axis" : "1.006605851989085",
        "inclination" : ".8481960586753917",
        "ascending_node_longitude" : "127.0622179919935",
        "orbital_period" : "368.882118331136",
        "perihelion_distance" : ".4461944503308738",
        "perihelion_argument" : "186.8452503669185",
        "aphelion_distance" : "1.567017253647297",
        "perihelion_time" : "2458094.414798558509",
        "mean_anomaly" : "268.3465264350019",
        "mean_motion" : ".9759215264450343",
        "equinox" : "J2000"
      }
    }, {
      "links" : {
        "self" : "https://api.nasa.gov/neo/rest/v1/neo/3363352?api_key=t0TVs3DtDT2H8Oy2Zy8m2eVrNsAVKAexjcZXUckd"
      },
      "neo_reference_id" : "3363352",
      "name" : "(2006 XJ1)",
      "nasa_jpl_url" : "http://ssd.jpl.nasa.gov/sbdb.cgi?sstr=3363352",
      "absolute_magnitude_h" : 21.4,
      "estimated_diameter" : {
        "kilometers" : {
          "estimated_diameter_min" : 0.1394938229,
          "estimated_diameter_max" : 0.3119176705
        },
        "meters" : {
          "estimated_diameter_min" : 139.4938229344,
          "estimated_diameter_max" : 311.9176705226
        },
        "miles" : {
          "estimated_diameter_min" : 0.0866774163,
          "estimated_diameter_max" : 0.1938165949
        },
        "feet" : {
          "estimated_diameter_min" : 457.6569140361,
          "estimated_diameter_max" : 1023.3519701574
        }
      },
      "is_potentially_hazardous_asteroid" : false,
      "close_approach_data" : [ {
        "close_approach_date" : "1996-12-15",
        "epoch_date_close_approach" : 850636800000,
        "relative_velocity" : {
          "kilometers_per_second" : "15.9410804078",
          "kilometers_per_hour" : "57387.8894679043",
          "miles_per_hour" : "35658.6027640987"
        },
        "miss_distance" : {
          "astronomical" : "0.4189530834",
          "lunar" : "162.9727478027",
          "kilometers" : "62674492",
          "miles" : "38944124"
        },
        "orbiting_body" : "Earth"
      } ],
      "orbital_data" : {
        "orbit_id" : "29",
        "orbit_determination_date" : "2017-04-06 09:07:25",
        "orbit_uncertainty" : "1",
        "minimum_orbit_intersection" : ".114266",
        "jupiter_tisserand_invariant" : "5.050",
        "epoch_osculation" : "2458000.5",
        "eccentricity" : ".1606764170278495",
        "semi_major_axis" : "1.262109555589648",
        "inclination" : "17.40842962638525",
        "ascending_node_longitude" : "269.5907587363369",
        "orbital_period" : "517.897731999401",
        "perihelion_distance" : "1.059318314300892",
        "perihelion_argument" : "135.1723582020947",
        "aphelion_distance" : "1.464900796878404",
        "perihelion_time" : "2458185.609704857334",
        "mean_anomaly" : "231.3269249290371",
        "mean_motion" : ".6951179311216146",
        "equinox" : "J2000"
      }
    } ]
  }
}